NORAD_CAT_ID,OBJECT_NAME,OBJECT_TYPE,EPOCH,MEAN_MOTION,ECCENTRICITY,INCLINATION,RA_OF_ASC_NODE,ARG_OF_PERICENTER,MEAN_ANOMALY,BSTAR,MEAN_MOTION_DOT,MEAN_MOTION_DDOT,TLE_LINE0,TLE_LINE1,TLE_LINE2,SEMIMAJOR_AXIS,PERIOD,APOGEE,PERIGEE,DECAYED
55751.0,STARLINK-5577,PAYLOAD,2023-09-12 12:34:30,14.98352817,0.0003552,70.0034,16.8777,264.8956,95.1797,0.00093078,0.00011037,0.0,0 STARLINK-5577,1 55751U 23028L   23255.52396262  .00011037  00000-0  93078-3 0  9992,2 55751  70.0034  16.8777 0003552 264.8956  95.1797 14.98352817 29850,6950.122,96.106,574.456,569.519,0.0
55751.0,STARLINK-5577,PAYLOAD,2023-09-12 17:22:53,14.98371433,0.000362,70.0033,16.372,265.6542,94.4203,0.0013117,0.0001561,0.0,0 STARLINK-5577,1 55751U 23028L   23255.72423597  .00015610  00000-0  13117-2 0  9992,2 55751  70.0033  16.3720 0003620 265.6542  94.4203 14.98371433 29880,6950.065,96.104,574.446,569.414,0.0
55751.0,STARLINK-5577,PAYLOAD,2023-09-13 01:23:33,14.98369548,0.0003551,70.0059,15.53,269.5938,90.4814,0.00094043,0.00011158,0.0,0 STARLINK-5577,1 55751U 23028L   23256.05803019  .00011158  00000-0  94043-3 0  9991,2 55751  70.0059  15.5300 0003551 269.5938  90.4814 14.98369548 29932,6950.071,96.104,574.404,569.468,0.0
55751.0,STARLINK-5577,PAYLOAD,2023-09-13 09:24:13,14.98357419,0.0003683,70.0037,14.6895,271.0783,88.9954,0.00032693,3.813e-05,0.0,0 STARLINK-5577,1 55751U 23028L   23256.39182706  .00003813  00000-0  32693-3 0  9993,2 55751  70.0037  14.6895 0003683 271.0783  88.9954 14.98357419 29985,6950.108,96.105,574.533,569.413,0.0
55751.0,STARLINK-5577,PAYLOAD,2023-09-13 12:36:29,14.98358625,0.0003656,70.0037,14.3529,271.3829,88.6911,0.00046425,5.455e-05,0.0,0 STARLINK-5577,1 55751U 23028L   23256.52534509  .00005455  00000-0  46425-3 0  9992,2 55751  70.0037  14.3529 0003656 271.3829  88.6911 14.98358625 30005,6950.104,96.105,574.51,569.428,0.0
55751.0,STARLINK-5577,PAYLOAD,2023-09-13 17:24:53,14.98363857,0.0003722,70.0034,13.8473,272.2474,87.8259,0.00086576,0.00010262,0.0,0 STARLINK-5577,1 55751U 23028L   23256.72562156  .00010262  00000-0  86576-3 0  9996,2 55751  70.0034  13.8473 0003722 272.2474  87.8259 14.98363857 30036,6950.088,96.105,574.54,569.366,0.0
55751.0,STARLINK-5577,PAYLOAD,2023-09-14 01:25:34,14.98335232,0.0003756,70.0041,13.0062,268.6809,91.392,-7.5216e-05,-9.91e-06,0.0,0 STARLINK-5577,1 55751U 23028L   23257.05942564 -.00000991  00000-0 -75216-4 0  9998,2 55751  70.0041  13.0062 0003756 268.6809  91.3920 14.98335232 30084,6950.177,96.107,574.652,569.431,0.0
55751.0,STARLINK-5577,PAYLOAD,2023-09-14 09:26:15,14.98312801,0.0003714,70.0044,12.1649,268.3102,91.7632,-0.00051289,-6.205e-05,0.0,0 STARLINK-5577,1 55751U 23028L   23257.39323323 -.00006205  00000-0 -51289-3 0  9998,2 55751  70.0044  12.1649 0003714 268.3102  91.7632 14.98312801 30132,6950.246,96.108,574.692,569.53,0.0
55751.0,STARLINK-5577,PAYLOAD,2023-09-14 11:02:23,14.98309874,0.0003859,70.0041,11.9965,269.844,90.2277,-0.00036929,-4.495e-05,0.0,0 STARLINK-5577,1 55751U 23028L   23257.45999460 -.00004495  00000-0 -36929-3 0  9999,2 55751  70.0041  11.9965 0003859 269.8440  90.2277 14.98309874 30144,6950.255,96.108,574.802,569.438,0.0
55751.0,STARLINK-5577,PAYLOAD,2023-09-14 17:26:56,14.98311324,0.0003737,70.0039,11.3229,268.4123,91.6608,0.00019552,2.24e-05,0.0,0 STARLINK-5577,1 55751U 23028L   23257.72703960  .00002240  00000-0  19552-3 0  9994,2 55751  70.0039  11.3229 0003737 268.4123  91.6608 14.98311324 30186,6950.251,96.108,574.713,569.518,0.0
55751.0,STARLINK-5577,PAYLOAD,2023-09-15 09:28:17,14.98330476,0.0003899,70.0036,9.6398,269.3598,90.7114,0.001634,0.00019459,0.0,0 STARLINK-5577,1 55751U 23028L   23258.39464672  .00019459  00000-0  16340-2 0  9993,2 55751  70.0036   9.6398 0003899 269.3598  90.7114 14.98330476 30287,6950.191,96.107,574.766,569.347,0.0
55751.0,STARLINK-5577,PAYLOAD,2023-09-15 12:40:33,14.98330484,0.0003902,70.0037,9.3032,269.3274,90.7438,0.0013274,0.00015782,0.0,0 STARLINK-5577,1 55751U 23028L   23258.52816698  .00015782  00000-0  13274-2 0  9995,2 55751  70.0037   9.3032 0003902 269.3274  90.7438 14.98330484 30307,6950.191,96.107,574.768,569.344,0.0
55751.0,STARLINK-5577,PAYLOAD,2023-09-16 09:30:17,14.98350117,0.0003852,70.004,7.1153,270.7638,89.308,0.00095027,0.0001127,0.0,0 STARLINK-5577,1 55751U 23028L   23259.39604054  .00011270  00000-0  95027-3 0  9997,2 55751  70.0040   7.1153 0003852 270.7638  89.3080 14.98350117 30431,6950.131,96.106,574.673,569.318,0.0
55751.0,STARLINK-5577,PAYLOAD,2023-09-16 12:42:33,14.98349588,0.0003736,70.0042,6.7784,268.9191,91.154,0.00066968,7.911e-05,0.0,0 STARLINK-5577,1 55751U 23028L   23259.52955898  .00007911  00000-0  66968-3 0  9996,2 55751  70.0042   6.7784 0003736 268.9191  91.1540 14.98349588 30456,6950.132,96.106,574.594,569.401,0.0
55751.0,STARLINK-5577,PAYLOAD,2023-09-16 23:55:29,14.9834852,0.0003537,70.0062,5.6004,265.0911,94.9844,0.00043968,5.16e-05,0.0,0 STARLINK-5577,1 55751U 23028L   23259.99687457  .00005160  00000-0  43968-3 0  9999,2 55751  70.0062   5.6004 0003537 265.0911  94.9844 14.98348520 30529,6950.136,96.106,574.459,569.542,0.0
55751.0,STARLINK-5577,PAYLOAD,2023-09-17 12:44:34,14.98349179,0.0003541,70.004,4.2547,267.9839,92.0915,0.00029119,3.385e-05,0.0,0 STARLINK-5577,1 55751U 23028L   23260.53095037  .00003385  00000-0  29119-3 0  9997,2 55751  70.0040   4.2547 0003541 267.9839  92.0915 14.98349179 30605,6950.134,96.106,574.46,569.538,0.0
55751.0,STARLINK-5577,PAYLOAD,2023-09-17 23:57:30,14.98338921,0.0003169,70.0053,3.0779,263.4238,96.656,0.00011744,1.309e-05,0.0,0 STARLINK-5577,1 55751U 23028L   23260.99827241  .00001309  00000-0  11744-3 0  9996,2 55751  70.0053   3.0779 0003169 263.4238  96.6560 14.98338921 30679,6950.165,96.106,574.233,569.828,0.0
55751.0,STARLINK-5577,PAYLOAD,2023-09-18 12:46:35,14.98334835,0.0003751,70.0034,1.7299,269.6658,90.4072,-5.2161e-05,-7.15e-06,0.0,0 STARLINK-5577,1 55751U 23028L   23261.53235177 -.00000715  00000-0 -52161-4 0  9999,2 55751  70.0034   1.7299 0003751 269.6658  90.4072 14.98334835 30750,6950.178,96.107,574.65,569.436,0.0
55751.0,STARLINK-5577,PAYLOAD,2023-09-18 17:34:59,14.98335605,0.000317,70.0054,1.2266,246.6611,113.4215,2.3099e-05,1.83e-06,0.0,0 STARLINK-5577,1 55751U 23028L   23261.73263104  .00000183  00000-0  23099-4 0  9997,2 55751  70.0054   1.2266 0003170 246.6611 113.4215 14.98335605 30784,6950.176,96.107,574.244,569.837,0.0
55751.0,STARLINK-5577,PAYLOAD,2023-09-18 23:59:30,14.98350307,0.0002971,70.0061,0.549,269.0814,91.0005,-0.00053013,-6.416e-05,0.0,0 STARLINK-5577,1 55751U 23028L   23261.99966153 -.00006416  00000-0 -53013-3 0  9994,2 55751  70.0061   0.5490 0002971 269.0814  91.0005 14.98350307 30824,6950.13,96.106,574.06,569.93,0.0
55751.0,STARLINK-5577,PAYLOAD,2023-09-19 09:36:19,14.98339375,0.0003819,70.0036,359.5419,269.6462,90.4259,0.00019779,2.268e-05,0.0,0 STARLINK-5577,1 55751U 23028L   23262.40022571  .00002268  00000-0  19779-3 0  9998,2 55751  70.0036 359.5419 0003819 269.6462  90.4259 14.98339375 30883,6950.164,96.106,574.683,569.375,0.0
55751.0,STARLINK-5577,PAYLOAD,2023-09-19 16:00:51,14.98352251,0.0003622,70.0035,358.8687,270.1294,89.945,0.00063407,7.485e-05,0.0,0 STARLINK-5577,1 55751U 23028L   23262.66726077  .00007485  00000-0  63407-3 0  9991,2 55751  70.0035 358.8687 0003622 270.1294  89.9450 14.98352251 30922,6950.124,96.106,574.506,569.472,0.0
55751.0,STARLINK-5577,PAYLOAD,2023-09-20 09:38:20,14.98324928,0.0003424,70.0034,357.0177,260.6401,99.4371,-0.0002667,-3.273e-05,0.0,0 STARLINK-5577,1 55751U 23028L   23263.40163134 -.00003273  00000-0 -26670-3 0  9997,2 55751  70.0034 357.0177 0003424 260.6401  99.4371 14.98324928 31031,6950.209,96.107,574.453,569.694,0.0
55751.0,STARLINK-5577,PAYLOAD,2023-09-20 14:26:45,14.98318155,0.0003837,70.0026,356.5119,265.9316,94.1405,-0.00023,-2.836e-05,0.0,0 STARLINK-5577,1 55751U 23028L   23263.60191518 -.00002836  00000-0 -23000-3 0  9994,2 55751  70.0026 356.5119 0003837 265.9316  94.1405 14.98318155 31061,6950.23,96.108,574.761,569.428,0.0
55751.0,STARLINK-5577,PAYLOAD,2023-09-20 16:02:53,14.98318829,0.0003809,70.0027,356.3439,265.2488,94.8236,-0.0001831,-2.277e-05,0.0,0 STARLINK-5577,1 55751U 23028L   23263.66867553 -.00002277  00000-0 -18310-3 0  9996,2 55751  70.0027 356.3439 0003809 265.2488  94.8236 14.98318829 31075,6950.227,96.108,574.74,569.445,0.0
55751.0,STARLINK-5577,PAYLOAD,2023-09-21 09:40:22,14.98334446,0.0003995,70.0025,354.4916,265.8356,94.2346,0.00083042,9.831e-05,0.0,0 STARLINK-5577,1 55751U 23028L   23264.40303687  .00009831  00000-0  83042-3 0  9997,2 55751  70.0025 354.4916 0003995 265.8356  94.2346 14.98334446 31189,6950.179,96.107,574.821,569.268,0.0
55751.0,STARLINK-5577,PAYLOAD,2023-09-21 12:52:38,14.9833761,0.0003923,70.0027,354.1549,265.387,94.6841,0.0010049,0.00011921,0.0,0 STARLINK-5577,1 55751U 23028L   23264.53655680  .00011921  00000-0  10049-2 0  9993,2 55751  70.0027 354.1549 0003923 265.3870  94.6841 14.98337610 31200,6950.169,96.107,574.761,569.308,0.0
55751.0,STARLINK-5577,PAYLOAD,2023-09-21 16:04:54,14.98346378,0.0003985,70.0026,353.8184,265.6883,94.3821,0.0013127,0.00015612,0.0,0 STARLINK-5577,1 55751U 23028L   23264.67007548  .00015612  00000-0  13127-2 0  9993,2 55751  70.0026 353.8184 0003985 265.6883  94.3821 14.98346378 31223,6950.142,96.106,574.777,569.238,0.0
55751.0,STARLINK-5577,PAYLOAD,2023-09-22 09:42:22,14.98346651,0.0003547,70.0036,351.968,257.1286,102.9477,0.00055052,6.485e-05,0.0,0 STARLINK-5577,1 55751U 23028L   23265.40443020  .00006485  00000-0  55052-3 0  9996,2 55751  70.0036 351.9680 0003547 257.1286 102.9477 14.98346651 31330,6950.141,96.106,574.472,569.541,0.0
55751.0,STARLINK-5577,PAYLOAD,2023-09-22 12:54:38,14.98347487,0.0003818,70.0029,351.6304,264.7221,95.3503,0.00054877,6.464e-05,0.0,0 STARLINK-5577,1 55751U 23028L   23265.53794961  .00006464  00000-0  54877-3 0  9994,2 55751  70.0029 351.6304 0003818 264.7221  95.3503 14.98347487 31351,6950.139,96.106,574.657,569.35,0.0
